{"type":"FeatureCollection","features":[{"type":"Feature","properties":{"code":"LT","name":"Lithuania"},"geometry":{"type":"MultiPolygon","coordinates":[[[[26.594531,55.666991],[26.603833,55.643271],[26.607657,55.616451],[26.605177,55.590096],[26.595565,55.56803],[26.576134,55.550564],[26.55164,55.534492],[26.532106,55.516251],[26.527662,55.492169],[26.546472,55.471241],[26.543268,55.459613],[26.507818,55.439149],[26.49924,55.428091],[26.486011,55.390832],[26.479086,55.381375],[26.455212,55.356105],[26.445496,55.337502],[26.450044,55.327063],[26.465754,55.320862],[26.525388,55.308098],[26.542338,55.307581],[26.602696,55.316883],[26.768629,55.300243],[26.791574,55.290166],[26.80072,55.27332],[26.789661,55.257197],[26.76558,55.246706],[26.739901,55.242776],[26.701088,55.236836],[26.685689,55.231617],[26.656956,55.215339],[26.641143,55.202833],[26.633909,55.192188],[26.627501,55.164438],[26.616339,55.135395],[26.600939,55.120823],[26.578925,55.118549],[26.473402,55.145679],[26.459139,55.144749],[26.450664,55.13984],[26.444773,55.133948],[26.438572,55.130021],[26.428753,55.128212],[26.420278,55.128109],[26.309484,55.144645],[26.264422,55.140098],[26.233003,55.111624],[26.230316,55.100255],[26.231246,55.075451],[26.229386,55.06341],[26.224631,55.054884],[26.187838,55.008736],[26.170325,54.99326],[26.153628,54.978506],[26.138642,54.968946],[26.102572,54.957008],[25.981132,54.942694],[25.962529,54.942901],[25.926148,54.947758],[25.907855,54.948068],[25.870234,54.938818],[25.858452,54.932979],[25.854835,54.925486],[25.853078,54.916442],[25.84667,54.90621],[25.825793,54.891999],[25.802538,54.881612],[25.782695,54.869675],[25.772256,54.850865],[25.773703,54.841925],[25.782281,54.821978],[25.782901,54.81371],[25.778457,54.805286],[25.773393,54.803374],[25.766571,54.803271],[25.756753,54.800377],[25.734946,54.78906],[25.7243,54.78012],[25.7212,54.766736],[25.72461,54.715679],[25.72306,54.705344],[25.719133,54.69475],[25.713862,54.685552],[25.709521,54.67563],[25.708384,54.663021],[25.715102,54.643229],[25.739906,54.607727],[25.745591,54.5884],[25.740423,54.568505],[25.726471,54.55295],[25.70735,54.54153],[25.646165,54.520394],[25.630869,54.508354],[25.619914,54.488096],[25.615573,54.461896],[25.616296,54.441071],[25.612576,54.421796],[25.594696,54.400091],[25.548807,54.367742],[25.529997,54.346141],[25.528653,54.320975],[25.542296,54.308056],[25.564,54.303146],[25.607408,54.304852],[25.667353,54.3233],[25.682339,54.325626],[25.695981,54.320975],[25.701769,54.312758],[25.704766,54.302991],[25.715412,54.285215],[25.719236,54.281546],[25.723267,54.280977],[25.734739,54.283199],[25.739286,54.282579],[25.748898,54.276326],[25.757786,54.268988],[25.765641,54.259997],[25.772256,54.248938],[25.776287,54.245631],[25.781764,54.244442],[25.786622,54.242323],[25.789206,54.236225],[25.786829,54.231781],[25.775046,54.22248],[25.771946,54.21788],[25.771016,54.172147],[25.763057,54.156437],[25.74001,54.146257],[25.728124,54.145223],[25.690607,54.148221],[25.679755,54.145327],[25.663942,54.132356],[25.653503,54.128739],[25.631593,54.128325],[25.543019,54.136955],[25.516044,54.144758],[25.493307,54.157522],[25.485762,54.175402],[25.493203,54.18243],[25.521729,54.188218],[25.528963,54.195659],[25.523382,54.204238],[25.499301,54.211834],[25.501678,54.221756],[25.522142,54.228629],[25.5455,54.227492],[25.553975,54.231265],[25.483488,54.287695],[25.478682,54.293328],[25.472068,54.297152],[25.459355,54.298909],[25.434137,54.291829],[25.394036,54.257154],[25.369748,54.247904],[25.287583,54.245217],[25.224124,54.25855],[25.206244,54.256793],[25.193532,54.243667],[25.173068,54.19659],[25.156531,54.175712],[25.115603,54.148789],[25.071989,54.132201],[25.027133,54.12786],[24.948275,54.145895],[24.902283,54.149771],[24.855981,54.146722],[24.850984,54.144951],[24.821565,54.134526],[24.817534,54.128222],[24.81743,54.120625],[24.818671,54.113959],[24.818154,54.110135],[24.799447,54.10321],[24.790559,54.096596],[24.784254,54.096234],[24.782497,54.092875],[24.787148,54.077631],[24.799034,54.05603],[24.81247,54.038925],[24.821358,54.019908],[24.819394,53.992571],[24.819291,53.992519],[24.819187,53.992416],[24.819084,53.992313],[24.806372,53.975311],[24.788698,53.969678],[24.723896,53.963426],[24.705603,53.964201],[24.690823,53.972831],[24.677904,53.992313],[24.674287,53.993708],[24.670566,53.994276],[24.666845,53.993863],[24.642971,53.983011],[24.579099,53.975621],[24.528663,53.958361],[24.414044,53.897693],[24.377871,53.886841],[24.341904,53.887048],[24.310175,53.892681],[24.276378,53.891802],[24.257051,53.894024],[24.246406,53.903636],[24.229146,53.932368],[24.201137,53.95247],[24.169615,53.95893],[24.136748,53.955416],[24.074943,53.935727],[24.045385,53.930869],[23.981306,53.930404],[23.964873,53.93273],[23.935417,53.943944],[23.919811,53.947768],[23.904721,53.946062],[23.828344,53.920069],[23.820592,53.919294],[23.812117,53.920844],[23.794134,53.927097],[23.787209,53.927924],[23.77181,53.924307],[23.754446,53.916762],[23.691918,53.911491],[23.642618,53.898985],[23.627116,53.89821],[23.609959,53.901827],[23.520145,53.93397],[23.485625,53.939293],[23.48976,53.945132],[23.49038,53.95061],[23.487486,53.955622],[23.481595,53.960118],[23.470949,53.965286],[23.462888,53.972521],[23.45865,53.981616],[23.45927,53.992313],[23.464128,53.996757],[23.469502,54.000684],[23.481595,54.006627],[23.496477,54.021975],[23.496167,54.044558],[23.481595,54.091221],[23.473947,54.112564],[23.462991,54.13494],[23.449039,54.154938],[23.432502,54.169305],[23.423304,54.172508],[23.401806,54.175971],[23.391471,54.180105],[23.382273,54.187856],[23.364082,54.208269],[23.354471,54.217054],[23.33599,54.226294],[23.316023,54.236277],[23.235408,54.254157],[23.197271,54.267851],[23.135259,54.298289],[23.117069,54.303457],[23.096915,54.300821],[23.073041,54.294878],[23.050096,54.294827],[23.032113,54.309554],[23.032216,54.320148],[23.038004,54.331465],[23.041622,54.340974],[23.035317,54.346503],[23.001004,54.34888],[22.989738,54.353376],[22.983434,54.359784],[22.97899,54.367587],[22.973305,54.37539],[22.96266,54.381695],[22.952428,54.38309],[22.92969,54.380299],[22.918838,54.381126],[22.858894,54.399213],[22.837603,54.400918],[22.812695,54.394097],[22.811344,54.392633],[22.78603,54.36521],[22.76722,54.35627],[22.706965,54.418747],[22.680403,54.453215],[22.674616,54.492282],[22.681747,54.5699],[22.703658,54.617546],[22.708102,54.635633],[22.706965,54.646485],[22.700764,54.669326],[22.700867,54.679558],[22.705105,54.686534],[22.727015,54.705344],[22.727532,54.709323],[22.724845,54.713767],[22.722778,54.718573],[22.724845,54.723379],[22.728256,54.725085],[22.736731,54.726325],[22.747273,54.731596],[22.764843,54.737125],[22.773007,54.742499],[22.78665,54.755987],[22.817759,54.769165],[22.832849,54.778673],[22.845768,54.79614],[22.848352,54.813813],[22.844321,54.832261],[22.829335,54.872724],[22.821273,54.885488],[22.808871,54.893756],[22.749236,54.909879],[22.740968,54.917631],[22.75213,54.931118],[22.738798,54.934116],[22.729186,54.940369],[22.722054,54.94719],[22.715543,54.951376],[22.706138,54.953133],[22.649914,54.952874],[22.633481,54.957939],[22.621699,54.970031],[22.608366,54.992407],[22.591623,55.037624],[22.580668,55.057622],[22.571165,55.06399],[22.565475,55.067803],[22.541084,55.075761],[22.436284,55.057777],[22.269884,55.069537],[22.251282,55.070852],[22.142658,55.054625],[22.129843,55.046977],[22.118474,55.037779],[22.09987,55.029924],[22.076823,55.02858],[22.049951,55.033541],[22.02773,55.044393],[22.018635,55.06093],[22.018635,55.077311],[22.015431,55.088422],[22.003442,55.093486],[21.9775,55.091987],[21.951352,55.080463],[21.942774,55.078293],[21.932955,55.080463],[21.908564,55.089868],[21.873217,55.094933],[21.85389,55.102219],[21.819887,55.119324],[21.750641,55.127954],[21.733381,55.136326],[21.716224,55.149451],[21.645841,55.181026],[21.60512,55.192498],[21.503938,55.19441],[21.467661,55.211153],[21.405546,55.27239],[21.37485,55.28996],[21.349839,55.287789],[21.267589,55.248684],[21.269054,55.253567],[21.264496,55.276557],[21.264415,55.284003],[21.270844,55.288031],[21.278087,55.286566],[21.28533,55.287055],[21.291189,55.297065],[21.289236,55.305243],[21.282481,55.31684],[21.274181,55.327338],[21.267589,55.331855],[21.259451,55.336249],[21.256358,55.346747],[21.257091,55.369371],[21.246593,55.370185],[21.188813,55.338609],[21.18336,55.346177],[21.183279,55.348375],[21.186046,55.349189],[21.224294,55.399319],[21.232758,55.406928],[21.248302,55.417873],[21.248383,55.442328],[21.236583,55.482652],[21.224294,55.512397],[21.222911,55.520209],[21.218516,55.523627],[21.208995,55.529608],[21.199392,55.537665],[21.195079,55.547187],[21.196056,55.559394],[21.197765,55.567328],[21.19809,55.574774],[21.195079,55.58511],[21.157563,55.64175],[21.150157,55.659329],[21.147227,55.678168],[21.140798,55.688137],[21.099376,55.729071],[21.089529,55.735256],[21.08074,55.738593],[21.074392,55.74494],[21.069835,55.769721],[21.060557,55.789252],[21.044688,55.873725],[21.044688,55.917711],[21.046886,55.928656],[21.056163,55.942532],[21.05836,55.95185],[21.05836,56.037543],[21.053396,56.072618],[21.091353,56.077896],[21.150161,56.07818],[21.190365,56.084459],[21.205351,56.103424],[21.212586,56.130994],[21.229639,56.163188],[21.254857,56.185202],[21.290411,56.206932],[21.327618,56.224373],[21.358313,56.233235],[21.403685,56.234476],[21.419292,56.237395],[21.558921,56.297288],[21.596025,56.307882],[21.684495,56.310104],[21.965322,56.383677],[21.983173,56.388353],[22.094082,56.41741],[22.139144,56.415705],[22.158161,56.410253],[22.195265,56.394853],[22.214902,56.390383],[22.511731,56.395964],[22.57581,56.387722],[22.578222,56.387003],[22.604749,56.379092],[22.649087,56.353099],[22.666347,56.349094],[22.681437,56.350308],[22.822927,56.382864],[22.859603,56.39707],[22.888969,56.408444],[22.924523,56.412113],[22.956976,56.401985],[22.981367,56.373175],[23.016714,56.32385],[23.062292,56.304161],[23.112728,56.310879],[23.162854,56.341007],[23.154173,56.351394],[23.17257,56.357956],[23.288428,56.373046],[23.310649,56.370591],[23.37804,56.35463],[23.481595,56.330103],[23.517561,56.328656],[23.577713,56.348603],[23.609856,56.353822],[23.679412,56.351859],[23.706697,56.354442],[23.715069,56.352737],[23.723544,56.345812],[23.724784,56.338397],[23.723647,56.332118],[23.724991,56.328811],[23.7561,56.325969],[23.825036,56.334909],[23.858109,56.334392],[23.871107,56.332072],[23.981306,56.312404],[24.07515,56.271192],[24.108637,56.260701],[24.138919,56.257446],[24.140422,56.2576],[24.166824,56.260314],[24.287644,56.295531],[24.318546,56.29858],[24.350792,56.291552],[24.414354,56.265507],[24.44722,56.260521],[24.481327,56.26884],[24.538998,56.287625],[24.557911,56.29858],[24.639147,56.359972],[24.678628,56.377283],[24.71504,56.386253],[24.805545,56.408548],[24.81557,56.408806],[24.837688,56.403948],[24.845852,56.40493],[24.852157,56.413664],[24.853397,56.424722],[24.857118,56.435368],[24.870967,56.442602],[24.892258,56.438727],[24.910138,56.421958],[24.936286,56.379919],[24.962124,56.319277],[24.973183,56.300751],[24.983208,56.290493],[25.016488,56.2699],[25.026203,56.260185],[25.04398,56.22799],[25.073125,56.197811],[25.109196,56.183083],[25.349086,56.159876],[25.454808,56.149649],[25.522762,56.156573],[25.572888,56.143034],[25.590045,56.141122],[25.649679,56.143809],[25.661875,56.140812],[25.669213,56.132027],[25.687817,56.098334],[25.696602,56.087895],[25.708797,56.081048],[25.766261,56.058647],[25.795496,56.04013],[25.871268,55.992139],[25.961251,55.958459],[26.017616,55.937362],[26.079421,55.89814],[26.178639,55.84959],[26.203754,55.827446],[26.226905,55.796931],[26.279718,55.743239],[26.34235,55.716342],[26.48105,55.678308],[26.537481,55.669523],[26.594531,55.666991]]],[[[20.989431,55.273116],[20.924569,55.282658],[20.924815,55.282904],[20.999522,55.357001],[21.041515,55.416083],[21.082367,55.497626],[21.09311,55.581692],[21.099376,55.5987],[21.093923,55.603461],[21.099376,55.612982],[21.090668,55.633124],[21.093516,55.695543],[21.085216,55.722846],[21.117442,55.699774],[21.131521,55.655585],[21.133556,55.568305],[21.131358,55.555732],[21.122081,55.539008],[21.119884,55.527045],[21.119884,55.489447],[21.108409,55.47309],[21.092621,55.45661],[21.087169,55.441067],[21.106212,55.427436],[21.106212,55.42121],[21.091807,55.410712],[21.073497,55.391791],[21.057628,55.369452],[21.050955,55.348863],[21.037852,55.328599],[20.988943,55.291327],[20.989431,55.273116]]]]}},{"type":"Feature","properties":{"code":"EE","name":"Estonia"},"geometry":{"type":"MultiPolygon","coordinates":[[[[24.306159,57.868186],[24.316661,57.877265],[24.324392,57.886786],[24.327891,57.898139],[24.330333,57.910102],[24.333832,57.921332],[24.381114,57.983832],[24.398285,58.023261],[24.446544,58.054511],[24.464122,58.07217],[24.464122,58.120551],[24.471446,58.142483],[24.472911,58.154731],[24.46754,58.165269],[24.459809,58.174506],[24.455089,58.185248],[24.454845,58.196438],[24.46754,58.217841],[24.46811,58.228827],[24.467621,58.239814],[24.470958,58.250922],[24.491466,58.265692],[24.521495,58.276109],[24.548513,58.289293],[24.560395,58.312323],[24.551036,58.333726],[24.528819,58.350653],[24.444184,58.386135],[24.403168,58.395331],[24.361827,58.397284],[24.326996,58.388129],[24.315929,58.37995],[24.304535,58.368069],[24.295746,58.354967],[24.292247,58.343085],[24.290782,58.327541],[24.286876,58.318549],[24.25587,58.289537],[24.243337,58.280219],[24.228852,58.274115],[24.210785,58.271389],[24.174164,58.276801],[24.156016,58.276842],[24.138927,58.267971],[24.12086,58.245185],[24.111664,58.241034],[24.094086,58.244696],[24.083507,58.250881],[24.053233,58.278266],[24.007091,58.300523],[23.980235,58.318427],[23.913829,58.333319],[23.873709,58.335191],[23.854666,58.339667],[23.849457,58.34276],[23.83839,58.351386],[23.833507,58.353949],[23.824474,58.35456],[23.81837,58.351752],[23.812836,58.348293],[23.805675,58.346503],[23.796641,58.348822],[23.786876,58.353095],[23.77711,58.354967],[23.768077,58.350246],[23.762055,58.344387],[23.755626,58.340033],[23.748546,58.339057],[23.740977,58.343085],[23.734874,58.351386],[23.729259,58.36286],[23.725271,58.374905],[23.723643,58.384711],[23.718923,58.399563],[23.70753,58.407375],[23.694184,58.413153],[23.68336,58.422187],[23.677419,58.435248],[23.677501,58.445543],[23.68336,58.470038],[23.684337,58.499661],[23.678966,58.524156],[23.663829,58.5362],[23.634939,58.528388],[23.622406,58.52912],[23.603201,58.535956],[23.584321,58.544867],[23.573497,58.551947],[23.566254,58.565904],[23.565115,58.577379],[23.561209,58.583157],[23.546153,58.579901],[23.532725,58.570258],[23.52475,58.559556],[23.516368,58.554633],[23.501475,58.562486],[23.498057,58.572211],[23.504405,58.582953],[23.51352,58.593817],[23.51824,58.603746],[23.512462,58.622382],[23.500987,58.647121],[23.493175,58.673407],[23.497732,58.696601],[23.506521,58.70539],[23.514822,58.706692],[23.535899,58.702786],[23.543224,58.704901],[23.546641,58.709621],[23.546235,58.714301],[23.53004,58.722846],[23.527354,58.736151],[23.533051,58.747463],[23.546153,58.747748],[23.584483,58.737942],[23.621755,58.7414],[23.658946,58.748928],[23.697032,58.751166],[23.716645,58.747016],[23.755219,58.733588],[23.771821,58.730699],[23.802501,58.730699],[23.805431,58.733873],[23.806651,58.740953],[23.804861,58.747992],[23.799083,58.751166],[23.783376,58.755845],[23.779552,58.766425],[23.785492,58.777981],[23.79949,58.785346],[23.816173,58.784613],[23.855154,58.773261],[23.87436,58.771674],[23.847423,58.788235],[23.815684,58.799954],[23.78419,58.800971],[23.75766,58.785346],[23.739513,58.798],[23.719086,58.799058],[23.676524,58.792182],[23.603363,58.794827],[23.580333,58.792182],[23.560313,58.785834],[23.550141,58.780911],[23.542735,58.775377],[23.536632,58.774482],[23.504893,58.77912],[23.485525,58.77733],[23.429454,58.764838],[23.466563,58.800727],[23.485688,58.809638],[23.518809,58.812649],[23.526134,58.81977],[23.463634,58.864163],[23.455089,58.883002],[23.422374,58.908677],[23.422048,58.928697],[23.443696,58.944037],[23.510102,58.941596],[23.531912,58.956692],[23.549164,58.950832],[23.566905,58.950141],[23.584483,58.953559],[23.61671,58.967678],[23.624848,58.972602],[23.627696,58.979153],[23.628103,58.9914],[23.621593,59.015326],[23.605479,59.03266],[23.583507,59.044745],[23.559825,59.052802],[23.572276,59.03974],[23.601899,59.024482],[23.614431,59.011298],[23.605968,59.00849],[23.587576,59.007473],[23.580333,59.005072],[23.559825,58.9914],[23.558442,58.987942],[23.558604,58.982001],[23.552989,58.970893],[23.543305,58.969875],[23.53712,58.974351],[23.531993,58.980536],[23.525645,58.983954],[23.461274,58.992377],[23.434825,59.003811],[23.408376,59.02558],[23.415212,59.02497],[23.429454,59.025865],[23.43629,59.02558],[23.42921,59.043606],[23.434906,59.056098],[23.480317,59.083645],[23.490733,59.088284],[23.501231,59.085435],[23.51824,59.07331],[23.519379,59.124986],[23.486176,59.17414],[23.470876,59.212144],[23.525645,59.230414],[23.536794,59.229682],[23.557791,59.225246],[23.569672,59.224189],[23.578461,59.226304],[23.592784,59.235663],[23.615489,59.241767],[23.627696,59.250067],[23.641856,59.257392],[23.662283,59.258287],[23.715505,59.231676],[23.718516,59.231431],[23.730479,59.230414],[23.742198,59.239407],[23.742931,59.250149],[23.736013,59.259589],[23.723643,59.265082],[23.734874,59.277737],[23.756847,59.283637],[23.845388,59.284654],[23.888845,59.278754],[23.935557,59.280585],[23.987641,59.29092],[24.038585,59.29328],[24.080577,59.271308],[24.100108,59.294501],[24.092052,59.312567],[24.028168,59.357652],[24.019379,59.367255],[24.022227,59.378119],[24.034841,59.388658],[24.048188,59.395087],[24.062999,59.397366],[24.080577,59.395453],[24.108653,59.384833],[24.164887,59.354071],[24.193858,59.347724],[24.221934,59.35517],[24.21339,59.37226],[24.187266,59.390692],[24.163097,59.402289],[24.182872,59.408759],[24.271251,59.412095],[24.306163,59.419094],[24.317719,59.430976],[24.3296,59.463813],[24.333832,59.470608],[24.399669,59.478827],[24.422537,59.477444],[24.442149,59.469875],[24.478282,59.448391],[24.498302,59.443834],[24.516775,59.448228],[24.5324,59.456773],[24.548188,59.462958],[24.567149,59.460028],[24.624848,59.43891],[24.642589,59.436428],[24.660492,59.440619],[24.656586,59.449897],[24.640391,59.459052],[24.621837,59.463121],[24.621837,59.470608],[24.648123,59.469224],[24.658539,59.472073],[24.662771,59.481147],[24.66627,59.492092],[24.674978,59.496039],[24.68629,59.495063],[24.69752,59.491034],[24.715587,59.475898],[24.728282,59.458564],[24.744395,59.447211],[24.772634,59.4501],[24.78419,59.454779],[24.79005,59.45893],[24.813243,59.484036],[24.815766,59.489325],[24.806814,59.504706],[24.800304,59.510565],[24.791352,59.514716],[24.783539,59.519843],[24.780121,59.528957],[24.779959,59.538398],[24.778982,59.545478],[24.776703,59.552151],[24.772634,59.559963],[24.803477,59.570502],[24.841645,59.554429],[24.90919,59.511542],[24.934418,59.508043],[25.012218,59.518378],[25.035818,59.515204],[25.077159,59.501044],[25.09783,59.49787],[25.116466,59.503119],[25.107921,59.528998],[25.122081,59.539496],[25.145518,59.53913],[25.194102,59.52265],[25.407725,59.491034],[25.409434,59.491034],[25.402354,59.514309],[25.415782,59.527086],[25.440115,59.532131],[25.533214,59.53205],[25.543712,59.535142],[25.543305,59.542222],[25.536143,59.549302],[25.525727,59.552476],[25.497081,59.570868],[25.481944,59.611151],[25.478526,59.651516],[25.484874,59.669827],[25.502452,59.662258],[25.53533,59.628974],[25.553722,59.621405],[25.575043,59.616889],[25.592052,59.606024],[25.622325,59.580471],[25.644542,59.571845],[25.676768,59.566067],[25.705903,59.569281],[25.718516,59.587592],[25.710785,59.60456],[25.695567,59.615912],[25.684825,59.628648],[25.690684,59.649359],[25.684337,59.650214],[25.675304,59.65412],[25.670665,59.655504],[25.694672,59.670885],[25.725352,59.665839],[25.780528,59.635688],[25.773123,59.628241],[25.785411,59.615465],[25.793712,59.591213],[25.807384,59.580471],[25.826182,59.575263],[25.836925,59.576483],[25.844493,59.577338],[25.861339,59.586127],[25.876231,59.600898],[25.868826,59.607733],[25.883067,59.631334],[25.90447,59.62401],[25.926931,59.605292],[25.944509,59.594672],[25.965017,59.597317],[25.967052,59.603827],[25.962738,59.612535],[25.964366,59.621405],[25.976899,59.631252],[25.988536,59.634345],[26.001801,59.632636],[26.036388,59.623236],[26.074474,59.604315],[26.07838,59.600287],[26.080333,59.594672],[26.081716,59.587307],[26.090994,59.585639],[26.28004,59.587307],[26.299327,59.584215],[26.340099,59.570502],[26.401703,59.563056],[26.457693,59.545885],[26.497813,59.539984],[26.519867,59.539496],[26.536469,59.54267],[26.570323,59.556789],[26.584727,59.559963],[26.626313,59.558051],[26.66505,59.551947],[26.702322,59.541409],[26.739024,59.525824],[26.780854,59.50255],[26.826915,59.476955],[26.875743,59.467719],[26.917491,59.454169],[26.937673,59.4501],[27.116222,59.442043],[27.275076,59.446967],[27.409028,59.45189],[27.563162,59.432074],[27.717052,59.427151],[27.873302,59.40762],[27.914724,59.414537],[27.953461,59.428168],[27.983165,59.446967],[28.019054,59.481757],[28.038578,59.462987],[28.083433,59.450894],[28.104827,59.439215],[28.128391,59.40945],[28.137796,59.400355],[28.149578,59.393172],[28.175365,59.381855],[28.186475,59.37493],[28.181825,59.356068],[28.157537,59.364026],[28.11356,59.345423],[28.032376,59.34196],[28.000647,59.333744],[28.073201,59.318964],[28.096869,59.319429],[28.076611,59.30527],[27.959719,59.306459],[27.903909,59.290387],[27.882308,59.275659],[27.890783,59.258038],[27.873523,59.236489],[27.842414,59.161196],[27.784329,59.07717],[27.767173,59.055931],[27.724385,59.014435],[27.713326,58.991904],[27.695889,58.977183],[27.694412,58.975936],[27.605322,58.934698],[27.477785,58.875426],[27.446269,58.818867],[27.410606,58.754864],[27.428849,58.709403],[27.449259,58.65854],[27.498869,58.534568],[27.554886,58.395248],[27.494115,58.319542],[27.482849,58.268641],[27.495355,58.22146],[27.519585,58.19451],[27.540003,58.171799],[27.579691,58.125859],[27.630437,58.08829],[27.636587,58.059196],[27.630127,58.032996],[27.631574,58.004161],[27.650643,58.000078],[27.669091,57.991965],[27.675189,57.967806],[27.670435,57.954965],[27.6632,57.943958],[27.659376,57.93246],[27.664957,57.918404],[27.673122,57.912823],[27.774408,57.890705],[27.790841,57.880861],[27.799316,57.861069],[27.78681,57.847581],[27.763452,57.838667],[27.700717,57.824844],[27.556343,57.813087],[27.537626,57.811563],[27.524604,57.8073],[27.532562,57.805077],[27.553853,57.794768],[27.526154,57.787275],[27.512408,57.781306],[27.502435,57.772547],[27.497835,57.755675],[27.508894,57.727459],[27.507757,57.714773],[27.490394,57.704618],[27.407712,57.688986],[27.391434,57.680201],[27.384664,57.674388],[27.379703,57.666455],[27.377016,57.656714],[27.377946,57.651702],[27.38022,57.647723],[27.382804,57.634468],[27.385129,57.631212],[27.386989,57.627646],[27.384871,57.606976],[27.38208,57.602687],[27.374845,57.597855],[27.362546,57.594548],[27.348904,57.594057],[27.336605,57.591731],[27.328027,57.583153],[27.328543,57.57057],[27.335571,57.553904],[27.344976,57.538091],[27.352935,57.527601],[27.319965,57.516129],[27.165659,57.546695],[27.085354,57.549434],[27.061531,57.555661],[27.041326,57.568451],[27.004635,57.598914],[26.981071,57.608991],[26.946551,57.615347],[26.929188,57.615554],[26.911618,57.613435],[26.896115,57.614986],[26.884953,57.622091],[26.872654,57.627181],[26.854154,57.622556],[26.838547,57.60987],[26.828315,57.595039],[26.816327,57.581189],[26.795759,57.571319],[26.778086,57.568477],[26.700468,57.570751],[26.666982,57.56486],[26.634322,57.554421],[26.604763,57.540313],[26.598355,57.533854],[26.594841,57.52649],[26.590087,57.520366],[26.579855,57.517834],[26.570243,57.519591],[26.551743,57.526826],[26.542235,57.528169],[26.528696,57.52388],[26.515053,57.517266],[26.49955,57.515819],[26.48105,57.527136],[26.447564,57.552922],[26.430924,57.561707],[26.430678,57.561764],[26.351325,57.580203],[26.33863,57.583153],[26.297185,57.599147],[26.263182,57.620825],[26.168511,57.70405],[26.135231,57.724772],[26.024747,57.774356],[26.016065,57.786681],[26.013068,57.8073],[26.016065,57.816472],[26.02175,57.822415],[26.025264,57.828409],[26.021956,57.837944],[26.014515,57.842827],[26.002733,57.845979],[25.792616,57.855979],[25.767502,57.868924],[25.754686,57.888897],[25.745384,57.90918],[25.730295,57.923132],[25.714998,57.923391],[25.7038,57.921327],[25.650093,57.911428],[25.625081,57.910291],[25.601517,57.912203],[25.579399,57.919463],[25.558315,57.934243],[25.552941,57.942175],[25.552114,57.948815],[25.551816,57.94986],[25.550254,57.955327],[25.541676,57.96282],[25.53196,57.966437],[25.496614,57.970597],[25.457185,57.984059],[25.39662,58.023178],[25.356519,58.034753],[25.34639,58.034443],[25.339879,58.032583],[25.333678,58.031808],[25.324583,58.034753],[25.318278,58.040619],[25.306393,58.058731],[25.299572,58.065604],[25.281692,58.073407],[25.263501,58.075138],[25.250686,58.068498],[25.249549,58.051186],[25.277557,58.024108],[25.284379,58.00814],[25.264535,57.994187],[25.232496,57.985376],[25.216786,57.985376],[25.20211,57.991965],[25.189914,58.013514],[25.180716,58.038164],[25.16697,58.058731],[25.141028,58.068007],[25.094209,58.067309],[25.070645,58.063615],[25.048838,58.056199],[25.034857,58.048574],[24.974837,58.01584],[24.949309,58.006435],[24.872518,58.00044],[24.848333,57.992146],[24.827417,57.981877],[24.81681,57.976669],[24.790765,57.978994],[24.764721,57.987909],[24.733508,57.992198],[24.718832,57.981837],[24.700435,57.95419],[24.684829,57.947575],[24.624057,57.943958],[24.553881,57.94742],[24.53383,57.945069],[24.481327,57.919308],[24.441639,57.908094],[24.429134,57.900343],[24.412701,57.876572],[24.401539,57.866469],[24.378181,57.859441],[24.349655,57.85864],[24.306159,57.868186]]],[[[23.94337,58.113186],[23.937999,58.137274],[23.955333,58.151801],[23.984223,58.157131],[24.013357,58.15351],[24.022146,58.129869],[24.002452,58.108547],[23.970714,58.099595],[23.94337,58.113186]]],[[[23.230642,58.504828],[23.255138,58.500067],[23.288585,58.488186],[23.31837,58.47248],[23.333263,58.456366],[23.324962,58.442288],[23.261404,58.465888],[23.237641,58.456366],[23.250255,58.454535],[23.261729,58.451606],[23.271332,58.44599],[23.278005,58.43651],[23.234874,58.439887],[23.215668,58.445868],[23.196056,58.456366],[23.192231,58.461127],[23.188243,58.468207],[23.181895,58.474677],[23.171886,58.477484],[23.156505,58.477525],[23.154796,58.475491],[23.148936,58.470038],[23.146983,58.466376],[23.141612,58.45185],[23.138031,58.446112],[23.130382,58.439521],[23.123546,58.435696],[23.108653,58.429023],[23.101899,58.429592],[23.09254,58.431545],[23.084239,58.429633],[23.080577,58.418524],[23.081065,58.412421],[23.082286,58.405992],[23.084239,58.39997],[23.086762,58.394965],[23.063813,58.385443],[23.042491,58.371487],[23.021983,58.363227],[22.97755,58.381659],[22.954845,58.381049],[22.94752,58.372626],[22.969493,58.360175],[22.90268,58.311835],[22.886974,58.307359],[22.870942,58.304674],[22.854015,58.298733],[22.82488,58.279202],[22.811209,58.273424],[22.788585,58.271389],[22.742931,58.27383],[22.721202,58.270331],[22.710134,58.257758],[22.756684,58.242255],[22.723155,58.225409],[22.6692,58.221503],[22.654959,58.244696],[22.639822,58.25023],[22.621349,58.252753],[22.60255,58.252102],[22.586192,58.247789],[22.570974,58.239447],[22.564952,58.235175],[22.560313,58.23725],[22.549083,58.247789],[22.535004,58.254055],[22.526134,58.247382],[22.517589,58.230414],[22.510427,58.2272],[22.507172,58.224921],[22.504161,58.223538],[22.497244,58.223049],[22.496837,58.226508],[22.491547,58.241523],[22.490977,58.244696],[22.476817,58.245103],[22.459321,58.240912],[22.443044,58.234076],[22.432384,58.226752],[22.421641,58.221625],[22.410004,58.224026],[22.398448,58.227729],[22.38795,58.226752],[22.380544,58.223456],[22.361501,58.217719],[22.35377,58.216783],[22.323416,58.20661],[22.295095,58.192857],[22.281993,58.182563],[22.27475,58.179267],[22.271739,58.174262],[22.269867,58.13703],[22.265391,58.115058],[22.256847,58.093248],[22.229259,58.052191],[22.221039,58.042955],[22.209809,58.034898],[22.19988,58.026028],[22.198416,58.016343],[22.202973,57.993964],[22.189952,57.983832],[22.04835,57.915107],[22.016856,57.914496],[21.990082,57.935614],[21.994395,57.947252],[21.990733,57.958238],[21.980805,57.966498],[21.966807,57.969713],[21.964122,57.971381],[21.962657,57.975287],[21.96225,57.979967],[21.96339,57.984036],[21.989757,57.982733],[21.997569,57.984036],[22.004568,57.990953],[22.015391,58.01203],[22.021332,58.021226],[22.05893,58.052314],[22.076182,58.073391],[22.085704,58.082587],[22.096202,58.086412],[22.110688,58.084052],[22.123546,58.079535],[22.135509,58.076728],[22.147716,58.079576],[22.153168,58.086249],[22.159028,58.107123],[22.16505,58.116889],[22.202973,58.147895],[22.180349,58.160834],[22.141856,58.169501],[22.072276,58.175849],[22.052989,58.186591],[22.016856,58.233873],[21.993826,58.244696],[21.928884,58.245103],[21.896495,58.250718],[21.867849,58.264594],[21.851329,58.281887],[21.843761,58.293606],[21.843272,58.302151],[21.855642,58.306871],[21.908214,58.298733],[21.896658,58.31391],[21.879568,58.329535],[21.873302,58.34162],[21.894542,58.346503],[21.912364,58.339748],[21.928396,58.326809],[21.944591,58.318752],[21.96339,58.326606],[21.954926,58.344062],[21.968028,58.35456],[21.990489,58.357856],[22.011241,58.353949],[22.002208,58.365424],[21.990082,58.386949],[21.945974,58.432278],[21.92449,58.446967],[21.901134,58.468411],[21.887706,58.477484],[21.859386,58.491889],[21.832367,58.510972],[21.88502,58.498196],[21.901378,58.497992],[21.91627,58.501166],[21.918468,58.504706],[21.918956,58.509955],[21.928477,58.518378],[21.966645,58.517564],[21.995616,58.512519],[22.020763,58.499254],[22.06422,58.456692],[22.069835,58.446479],[22.072032,58.432807],[22.073578,58.426907],[22.07781,58.423774],[22.083344,58.422512],[22.089366,58.422187],[22.098481,58.426093],[22.098643,58.43476],[22.09311,58.44953],[22.098806,58.475775],[22.103689,58.487209],[22.113617,58.497992],[22.126801,58.504625],[22.158946,58.513617],[22.171886,58.521552],[22.183279,58.535468],[22.187755,58.542873],[22.194591,58.545844],[22.212901,58.546373],[22.215587,58.544176],[22.219005,58.539008],[22.222179,58.533026],[22.223481,58.528388],[22.224864,58.516425],[22.228852,58.510565],[22.243337,58.504828],[22.273204,58.502021],[22.282888,58.52204],[22.283946,58.549547],[22.288341,58.569322],[22.321951,58.584784],[22.463064,58.592922],[22.550304,58.629584],[22.583181,58.634508],[22.594086,58.629136],[22.612641,58.605699],[22.62379,58.600328],[22.630138,58.598212],[22.640798,58.588853],[22.648123,58.586737],[22.658214,58.588853],[22.675792,58.598293],[22.68214,58.600328],[22.702647,58.597113],[22.719249,58.591213],[22.736339,58.58808],[22.757986,58.592922],[22.790701,58.614814],[22.811371,58.622952],[22.846365,58.61343],[22.899669,58.620266],[22.922048,58.617418],[22.944021,58.610175],[22.989757,58.601752],[23.036469,58.584174],[23.091075,58.57095],[23.111339,58.555732],[23.125824,58.535102],[23.133556,58.528998],[23.148285,58.521552],[23.18865,58.510403],[23.230642,58.504828]]],[[[23.381602,58.579901],[23.397146,58.563666],[23.400238,58.555406],[23.379893,58.547553],[23.371593,58.538764],[23.362153,58.532457],[23.346934,58.535468],[23.330903,58.54149],[23.313731,58.544664],[23.278575,58.546373],[23.264659,58.54385],[23.234874,58.534654],[23.223806,58.535468],[23.134613,58.579901],[23.083263,58.590522],[23.059337,58.603461],[23.062836,58.624579],[23.07545,58.629828],[23.10613,58.624213],[23.120942,58.628323],[23.123546,58.633694],[23.130382,58.654486],[23.134613,58.661811],[23.154633,58.67593],[23.175792,58.681098],[23.197765,58.680609],[23.288341,58.66649],[23.330251,58.653062],[23.343761,58.644721],[23.349132,58.635077],[23.348155,58.62519],[23.345958,58.615668],[23.347504,58.607164],[23.355642,58.598334],[23.374034,58.586371],[23.381602,58.579901]]],[[[23.364024,59.028957],[23.389659,59.007514],[23.393728,58.996243],[23.384776,58.980536],[23.374278,58.975531],[23.362315,58.977484],[23.350434,58.981879],[23.340099,58.983954],[23.329438,58.981838],[23.299083,58.970893],[23.278575,58.970689],[23.244395,58.98135],[23.223399,58.983954],[23.21754,58.981879],[23.215099,58.977362],[23.210785,58.972968],[23.174164,58.968329],[23.163259,58.96894],[23.148285,58.974026],[23.119395,59.016099],[23.114106,59.021796],[23.118907,59.033515],[23.131358,59.040717],[23.148204,59.04442],[23.170177,59.045885],[23.208018,59.044094],[23.278005,59.032375],[23.322032,59.039008],[23.344249,59.039293],[23.364024,59.028957]]],[[[22.291759,58.895209],[22.226899,58.886461],[22.194998,58.888007],[22.062511,58.925849],[22.044688,58.936184],[22.055512,58.952704],[22.094249,58.956041],[22.168224,58.950385],[22.463064,58.970893],[22.443533,58.977729],[22.442068,58.984687],[22.4546,58.987209],[22.476736,58.980536],[22.488455,58.981147],[22.487559,59.016425],[22.504242,59.02558],[22.526866,59.026353],[22.544444,59.030097],[22.559255,59.038398],[22.572927,59.052802],[22.576427,59.061713],[22.576427,59.070136],[22.578298,59.078437],[22.587169,59.086982],[22.597667,59.089504],[22.640473,59.087063],[22.641124,59.086982],[22.666677,59.084906],[22.696544,59.079169],[22.714122,59.069566],[22.69158,59.041164],[22.701345,59.02497],[22.72047,59.011623],[22.736664,59.005072],[22.837169,59.008612],[22.934093,58.984036],[22.949555,58.970893],[22.952647,58.960598],[22.947602,58.945136],[22.949555,58.936184],[22.958507,58.926703],[22.979503,58.917629],[22.987559,58.911933],[22.993988,58.905829],[23.008067,58.897406],[23.015147,58.891791],[23.018077,58.887193],[23.019054,58.882025],[23.018565,58.870673],[23.021739,58.864081],[23.028494,58.862128],[23.035492,58.862006],[23.039073,58.861029],[23.040538,58.840766],[23.033539,58.830308],[23.019054,58.829088],[22.977794,58.844184],[22.967296,58.846503],[22.956798,58.847398],[22.949555,58.84394],[22.947032,58.837551],[22.942231,58.834215],[22.92921,58.839993],[22.912608,58.835598],[22.895518,58.835517],[22.879568,58.832709],[22.867198,58.820054],[22.876638,58.819892],[22.883067,58.817288],[22.886974,58.811835],[22.888194,58.803046],[22.886729,58.790473],[22.882091,58.788031],[22.874278,58.787909],[22.863617,58.782213],[22.845388,58.776516],[22.816661,58.775946],[22.79005,58.780992],[22.778331,58.792182],[22.789317,58.802639],[22.811209,58.810858],[22.826915,58.819159],[22.819347,58.829657],[22.802257,58.83039],[22.777599,58.824368],[22.753184,58.815131],[22.736664,58.806464],[22.71518,58.78205],[22.681,58.724066],[22.654959,58.702786],[22.611176,58.690497],[22.555675,58.686998],[22.50172,58.69477],[22.463064,58.716457],[22.472179,58.719916],[22.480968,58.724799],[22.497244,58.737535],[22.483409,58.748196],[22.46518,58.766588],[22.449474,58.786811],[22.442638,58.803046],[22.442638,58.827216],[22.439789,58.841376],[22.429942,58.852444],[22.382091,58.88227],[22.354747,58.892076],[22.324962,58.896633],[22.291759,58.895209]]],[[[24.51588,59.59809],[24.530935,59.58397],[24.550059,59.557766],[24.542817,59.547797],[24.516287,59.544257],[24.489106,59.559638],[24.487315,59.578518],[24.500499,59.596259],[24.51588,59.59809]]],[[[23.260509,57.813544],[23.270681,57.807807],[23.275076,57.798733],[23.270193,57.785631],[23.250255,57.784369],[23.229503,57.791693],[23.217784,57.80093],[23.218598,57.809516],[23.220551,57.817694],[23.224294,57.823717],[23.239594,57.822577],[23.260509,57.813544]]]]}},{"type":"Feature","properties":{"code":"LV","name":"Latvia"},"geometry":{"type":"Polygon","coordinates":[[[27.352935,57.527601],[27.528169,57.528479],[27.522795,57.492022],[27.525637,57.46838],[27.514837,57.44789],[27.511323,57.430397],[27.536283,57.415695],[27.640824,57.389005],[27.694409,57.356375],[27.707952,57.348129],[27.809134,57.313945],[27.827738,57.304953],[27.840295,57.290639],[27.846134,57.267307],[27.841174,57.211212],[27.833939,57.18049],[27.824327,57.15907],[27.794045,57.143387],[27.700975,57.118789],[27.682217,57.103699],[27.696066,57.085457],[27.722059,57.07799],[27.745469,57.067991],[27.75074,57.042359],[27.745779,57.031455],[27.729552,57.009855],[27.723351,56.998796],[27.720767,56.988667],[27.718545,56.96872],[27.715135,56.957403],[27.648731,56.879268],[27.62837,56.844154],[27.644379,56.841772],[27.661185,56.839271],[27.744074,56.864799],[27.786397,56.871258],[27.830838,56.864282],[27.852232,56.854309],[27.891506,56.829711],[27.913521,56.82015],[27.918895,56.805888],[27.900085,56.783047],[27.876107,56.759431],[27.865461,56.742687],[27.882618,56.725479],[27.98101,56.687006],[27.991345,56.669979],[27.992172,56.624994],[27.997443,56.603833],[28.010982,56.587555],[28.028656,56.576754],[28.108651,56.55518],[28.126117,56.547764],[28.132215,56.535982],[28.125239,56.527145],[28.099246,56.513399],[28.093251,56.501591],[28.096455,56.491953],[28.104517,56.483065],[28.156503,56.44622],[28.164255,56.437952],[28.167872,56.427125],[28.164255,56.392812],[28.167148,56.369868],[28.174435,56.349637],[28.214794,56.281372],[28.217275,56.270727],[28.215311,56.255999],[28.20942,56.248144],[28.201358,56.241684],[28.193142,56.231039],[28.184408,56.207526],[28.178621,56.18391],[28.169112,56.161741],[28.148907,56.142414],[28.110976,56.156806],[28.06824,56.147582],[28.0511,56.140666],[28.023798,56.12965],[27.98101,56.118023],[27.939669,56.113062],[27.92706,56.109367],[27.911453,56.100246],[27.901532,56.089342],[27.892747,56.077095],[27.880654,56.063866],[27.812545,56.034514],[27.781229,56.016375],[27.776991,55.992397],[27.744435,55.959738],[27.64501,55.922841],[27.617156,55.878554],[27.610128,55.83096],[27.601498,55.809618],[27.592713,55.794244],[27.564601,55.792229],[27.438821,55.79874],[27.405851,55.804347],[27.374587,55.814837],[27.349627,55.831219],[27.329163,55.817576],[27.282448,55.791867],[27.263018,55.787216],[27.235526,55.795846],[27.173204,55.825741],[27.151448,55.832459],[27.110779,55.836283],[26.981071,55.826878],[26.979426,55.826291],[26.957817,55.818584],[26.900146,55.778715],[26.842785,55.719339],[26.822838,55.70611],[26.743049,55.682856],[26.720105,55.681874],[26.666878,55.693966],[26.64011,55.695568],[26.615615,55.687971],[26.594531,55.666991],[26.537481,55.669523],[26.48105,55.678308],[26.34235,55.716342],[26.279718,55.743239],[26.226905,55.796931],[26.203754,55.827446],[26.178639,55.84959],[26.079421,55.89814],[26.017616,55.937362],[25.961251,55.958459],[25.871268,55.992139],[25.795496,56.04013],[25.766261,56.058647],[25.708797,56.081048],[25.696602,56.087895],[25.687817,56.098334],[25.669213,56.132027],[25.661875,56.140812],[25.649679,56.143809],[25.590045,56.141122],[25.572888,56.143034],[25.522762,56.156573],[25.454808,56.149649],[25.349086,56.159876],[25.109196,56.183083],[25.073125,56.197811],[25.04398,56.22799],[25.026203,56.260185],[25.016488,56.2699],[24.983208,56.290493],[24.973183,56.300751],[24.962124,56.319277],[24.936286,56.379919],[24.910138,56.421958],[24.892258,56.438727],[24.870967,56.442602],[24.857118,56.435368],[24.853397,56.424722],[24.852157,56.413664],[24.845852,56.40493],[24.837688,56.403948],[24.81557,56.408806],[24.805545,56.408548],[24.71504,56.386253],[24.678628,56.377283],[24.639147,56.359972],[24.557911,56.29858],[24.538998,56.287625],[24.481327,56.26884],[24.44722,56.260521],[24.414354,56.265507],[24.350792,56.291552],[24.318546,56.29858],[24.287644,56.295531],[24.166824,56.260314],[24.140422,56.2576],[24.138919,56.257446],[24.108637,56.260701],[24.07515,56.271192],[23.981306,56.312404],[23.871107,56.332072],[23.858109,56.334392],[23.825036,56.334909],[23.7561,56.325969],[23.724991,56.328811],[23.723647,56.332118],[23.724784,56.338397],[23.723544,56.345812],[23.715069,56.352737],[23.706697,56.354442],[23.679412,56.351859],[23.609856,56.353822],[23.577713,56.348603],[23.517561,56.328656],[23.481595,56.330103],[23.37804,56.35463],[23.310649,56.370591],[23.288428,56.373046],[23.17257,56.357956],[23.154173,56.351394],[23.162854,56.341007],[23.112728,56.310879],[23.062292,56.304161],[23.016714,56.32385],[22.981367,56.373175],[22.956976,56.401985],[22.924523,56.412113],[22.888969,56.408444],[22.859603,56.39707],[22.822927,56.382864],[22.681437,56.350308],[22.666347,56.349094],[22.649087,56.353099],[22.604749,56.379092],[22.578222,56.387003],[22.57581,56.387722],[22.511731,56.395964],[22.214902,56.390383],[22.195265,56.394853],[22.158161,56.410253],[22.139144,56.415705],[22.094082,56.41741],[21.983173,56.388353],[21.965322,56.383677],[21.684495,56.310104],[21.596025,56.307882],[21.558921,56.297288],[21.419292,56.237395],[21.403685,56.234476],[21.358313,56.233235],[21.327618,56.224373],[21.290411,56.206932],[21.254857,56.185202],[21.229639,56.163188],[21.212586,56.130994],[21.205351,56.103424],[21.190365,56.084459],[21.150161,56.07818],[21.091353,56.077896],[21.053396,56.072618],[21.053396,56.072943],[21.052582,56.077541],[21.042735,56.114569],[21.028819,56.147406],[20.98406,56.210435],[20.973399,56.232001],[20.969086,56.253485],[20.971039,56.25967],[20.980235,56.279283],[20.982677,56.290758],[20.982677,56.301459],[20.981456,56.310492],[20.970958,56.34984],[20.968598,56.369818],[20.970551,56.388983],[20.979015,56.404364],[20.992524,56.417914],[20.998383,56.425686],[21.003184,56.434801],[21.005382,56.445868],[21.005544,56.465522],[21.01059,56.475735],[21.003266,56.49258],[21.000499,56.510647],[21.006358,56.519965],[21.024262,56.510484],[21.030528,56.500149],[21.035818,56.473944],[21.044688,56.462104],[21.030528,56.448432],[21.037446,56.444648],[21.044688,56.442206],[21.044688,56.427965],[21.044688,56.421129],[21.030528,56.408108],[21.053396,56.38996],[21.061778,56.38703],[21.07016,56.38935],[21.077159,56.395209],[21.079763,56.403062],[21.068614,56.424058],[21.066661,56.44184],[21.068126,56.458808],[21.072113,56.46955],[21.067638,56.476386],[21.063243,56.493964],[21.05836,56.503648],[21.052908,56.511054],[21.048106,56.515611],[21.030528,56.524156],[21.019542,56.527086],[21.010509,56.527777],[21.003103,56.530015],[20.996349,56.537828],[20.992198,56.548896],[20.995128,56.553371],[21.000336,56.557685],[21.010509,56.5987],[21.046153,56.656195],[21.05836,56.688666],[21.065196,56.774319],[21.061209,56.794135],[21.05421,56.811957],[21.052745,56.828925],[21.065196,56.84634],[21.147227,56.87641],[21.156749,56.885565],[21.222911,56.907701],[21.240977,56.91828],[21.277599,56.949123],[21.287771,56.955512],[21.300141,56.95954],[21.328217,56.973619],[21.360118,56.989691],[21.382498,57.008938],[21.401622,57.037502],[21.413585,57.073188],[21.414806,57.113837],[21.411876,57.124457],[21.401052,57.151313],[21.403168,57.162055],[21.412608,57.176215],[21.414806,57.184882],[21.412608,57.250067],[21.414806,57.270901],[21.421397,57.288723],[21.433604,57.306464],[21.449474,57.320014],[21.466563,57.325507],[21.480235,57.333645],[21.517751,57.3876],[21.589122,57.438788],[21.699229,57.555325],[21.729666,57.573798],[21.771658,57.586127],[21.955903,57.592963],[21.999278,57.600328],[22.194509,57.65762],[22.483735,57.742499],[22.526134,57.749661],[22.549083,57.750637],[22.560313,57.752753],[22.572602,57.756822],[22.585785,57.759711],[22.600271,57.758043],[22.610362,57.754625],[22.610118,57.753485],[22.604991,57.751044],[22.600271,57.743842],[22.590831,57.706122],[22.587169,57.664984],[22.590994,57.644761],[22.600759,57.630113],[22.656098,57.585761],[22.878917,57.481269],[22.950369,57.432807],[23.031423,57.394477],[23.083344,57.378241],[23.117524,57.373928],[23.130219,57.370795],[23.133149,57.362982],[23.133556,57.353095],[23.138031,57.343166],[23.160167,57.31859],[23.164561,57.313666],[23.174571,57.297349],[23.182384,57.277655],[23.190196,57.242499],[23.198741,57.224189],[23.213552,57.216254],[23.222423,57.207017],[23.250499,57.114447],[23.260916,57.098944],[23.274913,57.092719],[23.292654,57.088935],[23.340099,57.05858],[23.422862,57.040229],[23.508556,57.031236],[23.520844,57.02558],[23.569672,56.986274],[23.578624,56.982082],[23.585134,56.979071],[23.632009,56.970933],[23.69516,56.967271],[23.866059,56.99018],[23.926931,57.006334],[23.952891,57.013251],[23.991222,57.031236],[24.009288,57.0456],[24.021983,57.059027],[24.035655,57.068996],[24.074555,57.074937],[24.113048,57.088731],[24.210785,57.123725],[24.219249,57.138007],[24.238617,57.149563],[24.261241,57.157457],[24.278575,57.161038],[24.278819,57.17178],[24.288748,57.1789],[24.312673,57.1883],[24.379161,57.230211],[24.400645,57.258124],[24.408865,57.298163],[24.405528,57.344468],[24.381602,57.469428],[24.379893,57.506537],[24.375173,57.528551],[24.364513,57.538398],[24.358572,57.55036],[24.362966,57.576606],[24.374766,57.613471],[24.363048,57.672268],[24.357677,57.685492],[24.313731,57.725043],[24.299571,57.743842],[24.299571,57.761908],[24.288829,57.808905],[24.285981,57.832587],[24.288829,57.845282],[24.296153,57.857367],[24.306159,57.868186],[24.349655,57.85864],[24.378181,57.859441],[24.401539,57.866469],[24.412701,57.876572],[24.429134,57.900343],[24.441639,57.908094],[24.481327,57.919308],[24.53383,57.945069],[24.553881,57.94742],[24.624057,57.943958],[24.684829,57.947575],[24.700435,57.95419],[24.718832,57.981837],[24.733508,57.992198],[24.764721,57.987909],[24.790765,57.978994],[24.81681,57.976669],[24.827417,57.981877],[24.848333,57.992146],[24.872518,58.00044],[24.949309,58.006435],[24.974837,58.01584],[25.034857,58.048574],[25.048838,58.056199],[25.070645,58.063615],[25.094209,58.067309],[25.141028,58.068007],[25.16697,58.058731],[25.180716,58.038164],[25.189914,58.013514],[25.20211,57.991965],[25.216786,57.985376],[25.232496,57.985376],[25.264535,57.994187],[25.284379,58.00814],[25.277557,58.024108],[25.249549,58.051186],[25.250686,58.068498],[25.263501,58.075138],[25.281692,58.073407],[25.299572,58.065604],[25.306393,58.058731],[25.318278,58.040619],[25.324583,58.034753],[25.333678,58.031808],[25.339879,58.032583],[25.34639,58.034443],[25.356519,58.034753],[25.39662,58.023178],[25.457185,57.984059],[25.496614,57.970597],[25.53196,57.966437],[25.541676,57.96282],[25.550254,57.955327],[25.551816,57.94986],[25.552114,57.948815],[25.552941,57.942175],[25.558315,57.934243],[25.579399,57.919463],[25.601517,57.912203],[25.625081,57.910291],[25.650093,57.911428],[25.7038,57.921327],[25.714998,57.923391],[25.730295,57.923132],[25.745384,57.90918],[25.754686,57.888897],[25.767502,57.868924],[25.792616,57.855979],[26.002733,57.845979],[26.014515,57.842827],[26.021956,57.837944],[26.025264,57.828409],[26.02175,57.822415],[26.016065,57.816472],[26.013068,57.8073],[26.016065,57.786681],[26.024747,57.774356],[26.135231,57.724772],[26.168511,57.70405],[26.263182,57.620825],[26.297185,57.599147],[26.33863,57.583153],[26.351325,57.580203],[26.430678,57.561764],[26.430924,57.561707],[26.447564,57.552922],[26.48105,57.527136],[26.49955,57.515819],[26.515053,57.517266],[26.528696,57.52388],[26.542235,57.528169],[26.551743,57.526826],[26.570243,57.519591],[26.579855,57.517834],[26.590087,57.520366],[26.594841,57.52649],[26.598355,57.533854],[26.604763,57.540313],[26.634322,57.554421],[26.666982,57.56486],[26.700468,57.570751],[26.778086,57.568477],[26.795759,57.571319],[26.816327,57.581189],[26.828315,57.595039],[26.838547,57.60987],[26.854154,57.622556],[26.872654,57.627181],[26.884953,57.622091],[26.896115,57.614986],[26.911618,57.613435],[26.929188,57.615554],[26.946551,57.615347],[26.981071,57.608991],[27.004635,57.598914],[27.041326,57.568451],[27.061531,57.555661],[27.085354,57.549434],[27.165659,57.546695],[27.319965,57.516129],[27.352935,57.527601]]]}}]}
